PROMETHEUS 2-3          
1 41855U 16067H   23351.99925470  .00016092  00000+0  98598-3 0  9991
2 41855  98.0773 150.6542 0012489 328.5541  31.4939 15.10203770388187
DIDO-2                  
1 42000U 17008BE  23352.93273985  .00046089  00000+0  79236-3 0  9999
2 42000  97.1749  47.0756 0006059  83.9806 276.2137 15.50970658380452
AALTO-1                 
1 42775U 17036L   23352.88515436  .00036598  00000+0  76327-3 0  9995
2 42775  97.1322  18.5257 0008571 142.2206 217.9646 15.45431745360943
URSA MAIOR              
1 42776U 17036M   23352.61260409  .00051908  00000+0  93341-3 0  9991
2 42776  97.1314  20.3749 0008125 134.9736 225.2176 15.49651764361022
DIAMOND RED             
1 42783U 17036U   23352.82183685  .00069772  00000+0  96766-3 0  9994
2 42783  97.1247  25.0420 0005726 132.7175 227.4564 15.56809486361344
PEGASUS                 
1 42784U 17036V   23352.83176955  .00448438  00000+0  15467-2 0  9996
2 42784  97.1092  31.2716 0003300 107.7862 252.3771 15.88490498361779
DIAMOND GREEN           
1 42785U 17036W   23352.65147026  .00096974  00000+0  11659-2 0  9997
2 42785  97.1221  25.5806 0005730 126.3098 233.8690 15.60516279361430
DIAMOND BLUE            
1 42786U 17036X   23351.90519700  .00083879  00000+0  11011-2 0  9999
2 42786  97.1253  24.5140 0006229 129.3247 230.8562 15.58230927361298
CICERO 6                
1 42793U 17036AE  23352.61370773  .00048205  00000+0  80007-3 0  9997
2 42793  97.1228  24.1561 0006282 128.9057 231.2757 15.51950065361368
CORVUS BC2              
1 42846U 17042X   23352.48788184  .00004061  00000+0  36687-3 0  9994
2 42846  97.3728 182.9290 0007516 321.0865  38.9815 14.95976567350266
CORVUS BC1              
1 42847U 17042Y   23352.46642652  .00003445  00000+0  31101-3 0  9993
2 42847  97.3714 183.2840 0007510 317.8859  42.1785 14.96094886350277
MIRATA                  
1 43015U 17073C   23352.67494060  .00020231  00000+0  11264-2 0  9995
2 43015  97.6064 235.5437 0192767 156.4337 204.5868 14.99135855329060
MAKERSAT 0              
1 43016U 17073D   23352.61318803  .00012862  00000+0  80200-3 0  9998
2 43016  97.6045 232.1077 0212252 170.6236 189.9047 14.92797587328772
CORVUS BC3              
1 43118U 18004H   23352.74010016  .00054148  00000+0  91357-3 0  9993
2 43118  97.3077  68.1538 0005115 176.8694 183.2591 15.51470382330513
GOMX-4B                 
1 43196U 18015E   23352.77343776  .00033541  00000+0  69786-3 0  9991
2 43196  97.5940 150.5240 0010598 261.2747  98.7301 15.45501804327360
GOMX-4A                 
1 43197U 18015F   23352.88904011  .00039838  00000+0  70173-3 0  9996
2 43197  97.5911 153.8645 0009586 252.5611 107.4592 15.50285896327605
CUBEBEL-1 (BSUSAT-1)    
1 43666U 18083E   23352.89403295  .00117169  00000+0  13872-2 0  9997
2 43666  97.3542  27.7443 0005989 147.1711 212.9919 15.60847567285756
CICERO 10               
1 43690U 18088A   23352.90252703  .00047254  00000+0  91668-3 0  9994
2 43690  85.0258 306.6976 0003873 243.8044 116.2814 15.47470344283943
PROXIMA I               
1 43694U 18088E   23352.82126010  .00067152  00000+0  10375-2 0  9994
2 43694  85.0175 301.4242 0007132 178.7718 181.3560 15.53829888284298
PROXIMA II              
1 43696U 18088G   23352.85804052  .00059599  00000+0  93223-3 0  9998
2 43696  85.0181 301.4947 0007146 180.0458 180.0801 15.53511260284286
SIRION PATHFINDER-2     
1 43759U 18099B   23352.89918390  .00005409  00000+0  43414-3 0  9993
2 43759  97.5450  49.2383 0012541 184.4579 175.6536 15.00411394275308
CORVUS BC4              
1 43767U 18099K   23352.72633377  .00004440  00000+0  36192-3 0  9992
2 43767  97.5469  46.7673 0008346 225.8753 134.1785 14.99942197275171
MOVE-II                 
1 43780U 18099Y   23352.61955981  .00016476  00000+0  10522-2 0  9993
2 43780  97.5484  53.0992 0006765 237.8042 122.2531 15.08714287275495
SPACEBEE-7              
1 43816U 18099BL  23352.67995729  .00012119  00000+0  82741-3 0  9996
2 43816  97.5755  54.1176 0010970 184.8321 175.2802 15.06285547275046
SPACEBEE-5              
1 43817U 18099BM  23352.15274873  .00148775  00000+0  32571-2 0  9993
2 43817  97.5667  67.1396 0002275 189.5357 170.5848 15.43550090275774
SPACEBEE-6              
1 43818U 18099BN  23352.92545251  .00021905  00000+0  12574-2 0  9996
2 43818  97.5680  57.5176 0010284 194.8299 165.2631 15.12506653275427
SHIELDS 1               
1 43850U 18104B   23352.55573167  .00012224  00000+0  38837-3 0  9990
2 43850  85.0253  45.8351 0013283  41.4389 318.7863 15.32412554278305
STF-1                   
1 43852U 18104D   23352.64028263  .00147238  00000+0  13013-2 0  9996
2 43852  85.0127  39.1743 0004815  35.1307 325.0276 15.68190712279015
ZACUBE-2                
1 43907U 18111AH  23352.89851014  .00075206  00000+0  10246-2 0  9990
2 43907  97.1018 229.5666 0007882 258.5225 101.5146 15.57252818277717
LUME 1                  
1 43908U 18111AJ  23352.61503069  .00175993  00000+0  12600-2 0  9995
2 43908  97.1026 235.4092 0003639 212.8904 147.2135 15.73186420278077
SONATE                  
1 44400U 19038Q   23352.19061223  .00016421  00000+0  62965-3 0  9996
2 44400  97.7033 334.4743 0020196  33.8717 326.3806 15.26394238246258
LUCKY-7                 
1 44406U 19038W   23352.93565249  .00024338  00000+0  79905-3 0  9999
2 44406  97.6978 337.4926 0017714  24.0285 336.1778 15.31429290246521
BEESAT 9                
1 44412U 19038AC  23352.90546002  .00052440  00000+0  11320-2 0  9990
2 44412  97.6866 341.4816 0012909  19.8495 340.3252 15.44286819246518
JAISAT-1                
1 44419U 19038F   23352.89632952  .00051322  00000+0  11090-2 0  9997
2 44419  97.6848 342.5913 0012230  17.4809 342.6857 15.44270777246898
DUCHIFAT-3              
1 44854U 19089C   23352.53017497  .00014109  00000+0  84509-3 0  9996
2 44854  36.9606  66.3926 0006985  42.0905 318.0376 15.10376407220676
M2 PATHFINDER           
1 45727U 20037E   23352.42591342  .00003524  00000+0  32301-3 0  9997
2 45727  97.7632 165.1639 0012041  17.0374 343.1248 14.95503650188765
NETSAT-4                
1 46504U 20068U   23352.84735350  .00009599  00000+0  58077-3 0  9996
2 46504  97.7857 301.0038 0008327 262.4483  97.5800 15.10826332176754
NETSAT-3                
1 46505U 20068V   23352.84464820  .00008897  00000+0  54375-3 0  9995
2 46505  97.7830 300.7000 0007582 273.7508  86.2853 15.10485566176759
NETSAT-1                
1 46506U 20068W   23352.81717972  .00008307  00000+0  51942-3 0  9995
2 46506  97.7847 300.4377 0006664 286.1543  73.8952 15.09680167176731
NETSAT-2                
1 46507U 20068X   23352.85428269  .00009593  00000+0  58196-3 0  9994
2 46507  97.7845 300.7028 0005741 297.4376  62.6268 15.10742920176701
WILDTRACKCUBE-SIMBA     
1 47941U 21022K   23352.90052090  .00012073  00000+0  62772-3 0  9991
2 47941  97.4785 246.8390 0019418  59.5290 300.7858 15.16046616150959
BEESAT-6                
1 47957U 21022AB  23352.67961489  .00051731  00000+0  17122-2 0  9995
2 47957  97.4742 251.1640 0015573  57.6017 302.6728 15.31030952151030
SMOG-1                  
1 47964U 21022AJ  23352.85177717  .00044843  00000+0  14167-2 0  9998
2 47964  97.4812 254.0100 0013697  33.7035 326.5075 15.32590358150232
BCCSAT-1                
1 48041U 21022AK  23352.72500778  .00038791  00000+0  14038-2 0  9990
2 48041  97.4805 251.9358 0012209  37.5722 322.6368 15.28239195150062
BEESAT-5                
1 48083U 21022AM  23351.95356518  .00060713  00000+0  18520-2 0  9990
2 48083  97.4583 250.9214 0014755  45.7919 314.4533 15.33612529150119
BEESAT-7                
1 48084U 21022AN  23349.65652601  .00022364  00000+0  73842-3 0  9996
2 48084  97.4742 248.4128 0015049  53.1039 307.1579 15.31303769149316
BEESAT-8                
1 48085U 21022AP  23349.91383067  .00013672  00000+0  60496-3 0  9996
2 48085  97.4844 246.6617 0017679  61.1052 299.1954 15.21648802149763
LEDSAT                  
1 49069U 21073D   23352.72397582  .00015069  00000+0  72877-3 0  9993
2 49069  97.4624  60.7760 0021409 196.5193 163.5346 15.18495580128867
